NORAD_CAT_ID,OBJECT_NAME,OBJECT_TYPE,EPOCH,MEAN_MOTION,ECCENTRICITY,INCLINATION,RA_OF_ASC_NODE,ARG_OF_PERICENTER,MEAN_ANOMALY,BSTAR,MEAN_MOTION_DOT,MEAN_MOTION_DDOT,TLE_LINE0,TLE_LINE1,TLE_LINE2,SEMIMAJOR_AXIS,PERIOD,APOGEE,PERIGEE,DECAYED
52486.0,STARLINK-3918,PAYLOAD,2023-05-18 00:41:05,15.08846739,0.00011,53.2165,347.9804,94.3539,265.7578,0.0001702,2.422e-05,0.0,0 STARLINK-3918,1 52486U 22049AM  23138.02853634  .00002422  00000-0  17020-3 0  9993,2 52486  53.2165 347.9804 0001100  94.3539 265.7578 15.08846739 57428,6917.86,95.437,540.486,538.964,0.0
52486.0,STARLINK-3918,PAYLOAD,2023-05-18 02:16:28,15.08846275,0.0001121,53.2162,347.6828,95.9581,264.1539,0.00020125,2.917e-05,0.0,0 STARLINK-3918,1 52486U 22049AM  23138.09477661  .00002917  00000-0  20125-3 0  9991,2 52486  53.2162 347.6828 0001121  95.9581 264.1539 15.08846275 57273,6917.861,95.437,540.502,538.951,0.0
52486.0,STARLINK-3918,PAYLOAD,2023-05-18 16:34:57,15.08839244,0.0001126,53.2161,345.0067,95.4256,264.6864,5.4389e-05,5.78e-06,0.0,0 STARLINK-3918,1 52486U 22049AM  23138.69094000  .00000578  00000-0  54389-4 0  9990,2 52486  53.2161 345.0067 0001126  95.4256 264.6864 15.08839244 57520,6917.883,95.438,540.527,538.969,0.0
52486.0,STARLINK-3918,PAYLOAD,2023-05-19 19:36:30,15.08845594,0.0001163,53.2164,339.9514,94.477,265.6355,0.00015394,2.163e-05,0.0,0 STARLINK-3918,1 52486U 22049AM  23139.81701827  .00002163  00000-0  15394-3 0  9991,2 52486  53.2164 339.9514 0001163  94.4770 265.6355 15.08845594 57535,6917.863,95.437,540.533,538.924,0.0
52486.0,STARLINK-3918,PAYLOAD,2023-05-20 19:27:17,15.08850085,0.0001101,53.2159,335.4917,83.5992,276.5126,0.00017965,2.573e-05,0.0,0 STARLINK-3918,1 52486U 22049AM  23140.81061565  .00002573  00000-0  17965-3 0  9992,2 52486  53.2159 335.4917 0001101  83.5992 276.5126 15.08850085 57688,6917.85,95.437,540.476,538.953,0.0
52486.0,STARLINK-3918,PAYLOAD,2023-05-21 19:18:05,15.0883141,0.0001075,53.216,331.0306,90.6606,269.4509,-3.5922e-05,-8.59e-06,0.0,0 STARLINK-3918,1 52486U 22049AM  23141.80422767 -.00000859  00000-0 -35922-4 0  9998,2 52486  53.2160 331.0306 0001075  90.6606 269.4509 15.08831410 57996,6917.907,95.438,540.515,539.028,0.0
52486.0,STARLINK-3918,PAYLOAD,2023-05-21 22:28:51,15.08832355,0.0001054,53.2162,330.4357,90.272,269.8393,-1.6852e-05,-5.56e-06,0.0,0 STARLINK-3918,1 52486U 22049AM  23141.93670820 -.00000556  00000-0 -16852-4 0  9992,2 52486  53.2162 330.4357 0001054  90.2720 269.8393 15.08832355 57856,6917.904,95.438,540.498,539.04,0.0
52486.0,STARLINK-3918,PAYLOAD,2023-05-22 19:08:51,15.08853772,0.0001019,53.2161,326.5704,86.1137,273.9972,0.00038262,5.809e-05,0.0,0 STARLINK-3918,1 52486U 22049AM  23142.79782023  .00005809  00000-0  38262-3 0  9998,2 52486  53.2161 326.5704 0001019  86.1137 273.9972 15.08853772 58142,6917.838,95.437,540.408,538.998,0.0
52486.0,STARLINK-3918,PAYLOAD,2023-05-22 22:19:37,15.0885899,0.0001018,53.2163,325.9751,87.0441,273.0668,0.00049295,7.57e-05,0.0,0 STARLINK-3918,1 52486U 22049AM  23142.93029807  .00007570  00000-0  49295-3 0  9993,2 52486  53.2163 325.9751 0001018  87.0441 273.0668 15.08858990 58001,6917.822,95.436,540.392,538.983,0.0
52486.0,STARLINK-3918,PAYLOAD,2023-05-23 03:05:47,15.08831161,0.0001092,53.2166,325.0824,113.7043,246.4064,1.8391e-05,5e-08,0.0,0 STARLINK-3918,1 52486U 22049AM  23143.12902510  .00000005  00000-0  18391-4 0  9996,2 52486  53.2166 325.0824 0001092 113.7043 246.4064 15.08831161 58198,6917.907,95.438,540.528,539.017,0.0
52486.0,STARLINK-3918,PAYLOAD,2023-05-23 18:59:39,15.08843783,9.43e-05,53.2166,322.1098,101.1948,258.915,0.0011055,0.00017352,0.0,0 STARLINK-3918,1 52486U 22049AM  23143.79142448  .00017352  00000-0  11055-2 0  9996,2 52486  53.2166 322.1098 0000943 101.1948 258.9150 15.08843783 58296,6917.869,95.437,540.386,539.081,0.0
52486.0,STARLINK-3918,PAYLOAD,2023-05-23 22:10:25,15.08844711,9.2e-05,53.2166,321.5152,104.7067,255.4027,0.0011783,0.00018517,0.0,0 STARLINK-3918,1 52486U 22049AM  23143.92390429  .00018517  00000-0  11783-2 0  9997,2 52486  53.2166 321.5152 0000920 104.7067 255.4027 15.08844711 58158,6917.866,95.437,540.367,539.095,0.0
52486.0,STARLINK-3918,PAYLOAD,2023-05-24 04:31:58,15.08837382,8.86e-05,53.2165,320.3252,105.9261,254.1829,0.00035614,5.384e-05,0.0,0 STARLINK-3918,1 52486U 22049AM  23144.18886602  .00005384  00000-0  35614-3 0  9997,2 52486  53.2165 320.3252 0000886 105.9261 254.1829 15.08837382 58359,6917.888,95.438,540.366,539.14,0.0
52486.0,STARLINK-3918,PAYLOAD,2023-05-24 15:39:40,15.08841342,9.21e-05,53.2164,318.2437,101.4687,258.6409,0.00049653,7.624e-05,0.0,0 STARLINK-3918,1 52486U 22049AM  23144.65254755  .00007624  00000-0  49653-3 0  9994,2 52486  53.2164 318.2437 0000921 101.4687 258.6409 15.08841342 58266,6917.876,95.437,540.378,539.104,0.0
52486.0,STARLINK-3918,PAYLOAD,2023-05-25 18:41:13,15.08847976,8.6e-05,53.216,313.1887,93.1822,266.9268,0.00054692,8.429e-05,0.0,0 STARLINK-3918,1 52486U 22049AM  23145.77862788  .00008429  00000-0  54692-3 0  9992,2 52486  53.2160 313.1887 0000860  93.1822 266.9268 15.08847976 58595,6917.856,95.437,540.316,539.126,0.0
52486.0,STARLINK-3918,PAYLOAD,2023-05-25 20:16:36,15.08850813,8.74e-05,53.216,312.8914,94.7288,265.3804,0.00061133,9.458e-05,0.0,0 STARLINK-3918,1 52486U 22049AM  23145.84486696  .00009458  00000-0  61133-3 0  9991,2 52486  53.2160 312.8914 0000874  94.7288 265.3804 15.08850813 58447,6917.847,95.437,540.317,539.108,0.0
52486.0,STARLINK-3918,PAYLOAD,2023-05-26 18:32:00,15.08844826,0.0001024,53.216,308.7278,89.5188,270.5922,0.00021553,3.144e-05,0.0,0 STARLINK-3918,1 52486U 22049AM  23146.77222819  .00003144  00000-0  21553-3 0  9997,2 52486  53.2160 308.7278 0001024  89.5188 270.5922 15.08844826 58742,6917.866,95.437,540.439,539.022,0.0
52486.0,STARLINK-3918,PAYLOAD,2023-05-26 20:07:23,15.08845903,0.0001039,53.216,308.4302,89.0579,271.0532,0.00023162,3.401e-05,0.0,0 STARLINK-3918,1 52486U 22049AM  23146.83846764  .00003401  00000-0  23162-3 0  9999,2 52486  53.2160 308.4302 0001039  89.0579 271.0532 15.08845903 58595,6917.862,95.437,540.446,539.009,0.0
52486.0,STARLINK-3918,PAYLOAD,2023-05-27 19:58:10,15.08850623,9.65e-05,53.2168,303.9677,101.901,258.2091,0.00016681,2.369e-05,0.0,0 STARLINK-3918,1 52486U 22049AM  23147.83206277  .00002369  00000-0  16681-3 0  9999,2 52486  53.2168 303.9677 0000965 101.9010 258.2091 15.08850623 58906,6917.848,95.437,540.38,539.045,0.0
52486.0,STARLINK-3918,PAYLOAD,2023-05-28 03:55:05,15.08848267,6.51e-05,53.2165,302.4839,105.4959,254.6105,0.00012372,1.682e-05,0.0,0 STARLINK-3918,1 52486U 22049AM  23148.16326302  .00001682  00000-0  12372-3 0  9998,2 52486  53.2165 302.4839 0000651 105.4959 254.6105 15.08848267 58794,6917.855,95.437,540.17,539.27,0.0
52486.0,STARLINK-3918,PAYLOAD,2023-05-28 10:16:38,15.08840623,8.46e-05,53.2153,301.2955,88.9849,271.124,9.7417e-05,1.263e-05,0.0,0 STARLINK-3918,1 52486U 22049AM  23148.42822791  .00001263  00000-0  97417-4 0  9999,2 52486  53.2153 301.2955 0000846  88.9849 271.1240 15.08840623 58990,6917.878,95.438,540.329,539.158,0.0
52486.0,STARLINK-3918,PAYLOAD,2023-05-28 16:38:11,15.0884602,9.08e-05,53.2157,300.1053,88.5455,271.5641,0.00010929,1.452e-05,0.0,0 STARLINK-3918,1 52486U 22049AM  23148.69318489  .00001452  00000-0  10929-3 0  9994,2 52486  53.2157 300.1053 0000908  88.5455 271.5641 15.08846020 58872,6917.862,95.437,540.355,539.099,0.0
52486.0,STARLINK-3918,PAYLOAD,2023-05-29 14:53:35,15.08840252,9.03e-05,53.2166,295.9412,90.4776,269.632,5.0428e-05,5.15e-06,0.0,0 STARLINK-3918,1 52486U 22049AM  23149.62054708  .00000515  00000-0  50428-4 0  9997,2 52486  53.2166 295.9412 0000903  90.4776 269.6320 15.08840252 59015,6917.88,95.438,540.369,539.12,0.0
52486.0,STARLINK-3918,PAYLOAD,2023-05-29 16:28:58,15.08842515,9.02e-05,53.2168,295.6436,91.8538,268.2557,5.4523e-05,5.8e-06,0.0,0 STARLINK-3918,1 52486U 22049AM  23149.68678525  .00000580  00000-0  54523-4 0  9994,2 52486  53.2168 295.6436 0000902  91.8538 268.2557 15.08842515 59189,6917.873,95.437,540.362,539.114,0.0
52486.0,STARLINK-3918,PAYLOAD,2023-05-30 14:44:22,15.088375,0.000102,53.217,291.4793,95.1222,264.9887,3.2041e-05,2.22e-06,0.0,0 STARLINK-3918,1 52486U 22049AM  23150.61414981  .00000222  00000-0  32041-4 0  9997,2 52486  53.2170 291.4793 0001020  95.1222 264.9887 15.08837500 59324,6917.888,95.438,540.459,539.047,0.0
52486.0,STARLINK-3918,PAYLOAD,2023-05-31 12:59:46,15.08837796,0.0001082,53.2191,287.3235,104.8247,255.2865,0.00010212,1.338e-05,0.0,0 STARLINK-3918,1 52486U 22049AM  23151.54150961  .00001338  00000-0  10212-3 0  9999,2 52486  53.2191 287.3235 0001082 104.8247 255.2865 15.08837796 59309,6917.887,95.438,540.501,539.004,0.0
52486.0,STARLINK-3918,PAYLOAD,2023-05-31 16:10:32,15.08840415,0.0001066,53.2184,286.7279,108.7904,251.3204,0.000105,1.384e-05,0.0,0 STARLINK-3918,1 52486U 22049AM  23151.67398802  .00001384  00000-0  10500-3 0  9992,2 52486  53.2184 286.7279 0001066 108.7904 251.3204 15.08840415 59482,6917.879,95.438,540.482,539.007,0.0
52486.0,STARLINK-3918,PAYLOAD,2023-06-01 01:42:51,15.08836205,0.000107,53.2175,284.9439,103.6332,256.478,3.1809e-05,2.18e-06,0.0,0 STARLINK-3918,1 52486U 22049AM  23152.07143288  .00000218  00000-0  31809-4 0  9994,2 52486  53.2175 284.9439 0001070 103.6332 256.4780 15.08836205 59548,6917.892,95.438,540.497,539.017,0.0
52486.0,STARLINK-3918,PAYLOAD,2023-06-01 09:39:47,15.08837508,0.0001377,53.2178,283.4568,127.3562,232.7556,6.0582e-05,6.76e-06,0.0,0 STARLINK-3918,1 52486U 22049AM  23152.40263227  .00000676  00000-0  60582-4 0  9995,2 52486  53.2178 283.4568 0001377 127.3562 232.7556 15.08837508 59439,6917.888,95.438,540.706,538.8,0.0
52486.0,STARLINK-3918,PAYLOAD,2023-06-02 12:41:21,15.08834024,0.000137,53.2191,278.4015,93.9936,266.1213,1.3773e-05,-6.9e-07,0.0,0 STARLINK-3918,1 52486U 22049AM  23153.52872042 -.00000069  00000-0  13773-4 0  9997,2 52486  53.2191 278.4015 0001370  93.9936 266.1213 15.08834024 59768,6917.899,95.438,540.711,538.816,0.0
